{
  "type": "FeatureCollection",
  "features": [
    {
      "type": "Feature",
      "geometry": {
        "type": "MultiPolygon",
        "coordinates": [
          [
            [
              [
                -4.5041381,
                54.2602344
              ],
              [
                -4.504942,
                54.261786
              ],
              [
                -4.5053249,
                54.2633358
              ],
              [
                -4.5053324,
                54.26339
              ],
              [
                -4.5046812,
                54.2642108
              ],
              [
                -4.5044097,
                54.2655499
              ],
              [
                -4.505061,
                54.2659352
              ],
              [
                -4.5043711,
                54.2663137
              ],
              [
                -4.504289,
                54.266579
              ],
              [
                -4.503493,
                54.267075
              ],
              [
                -4.5027446,
                54.2672686
              ],
              [
                -4.5025526,
                54.2680086
              ],
              [
                -4.5018949,
                54.2684985
              ],
              [
                -4.5018831,
                54.2689246
              ],
              [
                -4.5015419,
                54.2694559
              ],
              [
                -4.501882,
                54.2700354
              ],
              [
                -4.5019485,
                54.2703832
              ],
              [
                -4.5014056,
                54.2711707
              ],
              [
                -4.5015333,
                54.27167
              ],
              [
                -4.5014711,
                54.2720948
              ],
              [
                -4.5011203,
                54.2730496
              ],
              [
                -4.5012918,
                54.2738955
              ],
              [
                -4.5010568,
                54.2745827
              ],
              [
                -4.5012265,
                54.2761161
              ],
              [
                -4.5045266,
                54.2779053
              ],
              [
                -4.515044,
                54.283607
              ],
              [
                -4.507472,
                54.290492
              ],
              [
                -4.512881,
                54.298812
              ],
              [
                -4.512993,
                54.299366
              ],
              [
                -4.511579,
                54.302988
              ],
              [
                -4.509441,
                54.308482
              ],
              [
                -4.509029,
                54.310035
              ],
              [
                -4.508986,
                54.310784
              ],
              [
                -4.509107,
                54.311531
              ],
              [
                -4.509723,
                54.313091
              ],
              [
                -4.5099857,
                54.3143405
              ],
              [
                -4.510052,
                54.314656
              ],
              [
                -4.510056,
                54.316299
              ],
              [
                -4.510089,
                54.317724
              ],
              [
                -4.509641,
                54.319374
              ],
              [
                -4.509186,
                54.320903
              ],
              [
                -4.508315,
                54.323115
              ],
              [
                -4.5073973,
                54.3248538
              ],
              [
                -4.5071484,
                54.3261504
              ],
              [
                -4.5066832,
                54.326888
              ],
              [
                -4.5054016,
                54.3298359
              ],
              [
                -4.5056166,
                54.3301608
              ],
              [
                -4.5051798,
                54.3303604
              ],
              [
                -4.5047187,
                54.3320172
              ],
              [
                -4.5046421,
                54.3330026
              ],
              [
                -4.5049008,
                54.3338967
              ],
              [
                -4.5004637,
                54.3362024
              ],
              [
                -4.4965936,
                54.3385268
              ],
              [
                -4.493451,
                54.34099
              ],
              [
                -4.4927711,
                54.3417479
              ],
              [
                -4.4911127,
                54.3428915
              ],
              [
                -4.489688,
                54.3440102
              ],
              [
                -4.4879862,
                54.3453414
              ],
              [
                -4.4870582,
                54.3460555
              ],
              [
                -4.4866756,
                54.3462709
              ],
              [
                -4.4864515,
                54.346407
              ],
              [
                -4.4835669,
                54.3478711
              ],
              [
                -4.4812542,
                54.3490098
              ],
              [
                -4.480598,
                54.350208
              ],
              [
                -4.4792069,
                54.3508537
              ],
              [
                -4.4780956,
                54.3515601
              ],
              [
                -4.4775255,
                54.3524726
              ],
              [
                -4.4777364,
                54.3528121
              ],
              [
                -4.4770525,
                54.3528545
              ],
              [
                -4.476325,
                54.3538227
              ],
              [
                -4.4756985,
                54.3550299
              ],
              [
                -4.4757458,
                54.3552629
              ],
              [
                -4.4754395,
                54.3558559
              ],
              [
                -4.4751378,
                54.3559064
              ],
              [
                -4.4749682,
                54.3560673
              ],
              [
                -4.4749898,
                54.3564829
              ],
              [
                -4.4745613,
                54.3568464
              ],
              [
                -4.473819,
                54.3598334
              ],
              [
                -4.4739087,
                54.3602547
              ],
              [
                -4.4736232,
                54.360634
              ],
              [
                -4.4724813,
                54.3630028
              ],
              [
                -4.4720045,
                54.3640731
              ],
              [
                -4.4720095,
                54.3643188
              ],
              [
                -4.4716742,
                54.3648125
              ],
              [
                -4.4717491,
                54.3653641
              ],
              [
                -4.4714092,
                54.3654258
              ],
              [
                -4.4716169,
                54.366953
              ],
              [
                -4.4715002,
                54.3676545
              ],
              [
                -4.4710336,
                54.368283
              ],
              [
                -4.4709242,
                54.3686865
              ],
              [
                -4.4709315,
                54.369155
              ],
              [
                -4.471268,
                54.3696971
              ],
              [
                -4.471623,
                54.370067
              ],
              [
                -4.4721602,
                54.3707036
              ],
              [
                -4.4736523,
                54.3712978
              ],
              [
                -4.4751074,
                54.3717316
              ],
              [
                -4.4763804,
                54.3717734
              ],
              [
                -4.4788352,
                54.3720173
              ],
              [
                -4.4805625,
                54.3722498
              ],
              [
                -4.4817339,
                54.3722462
              ],
              [
                -4.4831458,
                54.3720854
              ],
              [
                -4.486192,
                54.371595
              ],
              [
                -4.4869189,
                54.3713058
              ],
              [
                -4.488514,
                54.371122
              ],
              [
                -4.4896715,
                54.3710544
              ],
              [
                -4.4906626,
                54.3710975
              ],
              [
                -4.4931271,
                54.3715191
              ],
              [
                -4.4935713,
                54.3715041
              ],
              [
                -4.4946248,
                54.3721894
              ],
              [
                -4.4954319,
                54.3724185
              ],
              [
                -4.4965602,
                54.3730404
              ],
              [
                -4.4984758,
                54.3737399
              ],
              [
                -4.4988628,
                54.3739809
              ],
              [
                -4.4993962,
                54.3749637
              ],
              [
                -4.4999718,
                54.3750458
              ],
              [
                -4.5000537,
                54.3753712
              ],
              [
                -4.499763,
                54.3758031
              ],
              [
                -4.4997079,
                54.37622
              ],
              [
                -4.5000247,
                54.3764805
              ],
              [
                -4.5006419,
                54.3779213
              ],
              [
                -4.5007925,
                54.378183
              ],
              [
                -4.5006782,
                54.3786484
              ],
              [
                -4.5001368,
                54.3809181
              ],
              [
                -4.4999699,
                54.3819292
              ],
              [
                -4.4996965,
                54.3837673
              ],
              [
                -4.4988987,
                54.3841315
              ],
              [
                -4.4971023,
                54.3849192
              ],
              [
                -4.491834,
                54.387533
              ],
              [
                -4.4900059,
                54.3884635
              ],
              [
                -4.4877732,
                54.3894396
              ],
              [
                -4.4854202,
                54.3900298
              ],
              [
                -4.4813172,
                54.3917635
              ],
              [
                -4.4767657,
                54.3934636
              ],
              [
                -4.4723635,
                54.3949605
              ],
              [
                -4.4705183,
                54.3956612
              ],
              [
                -4.4652777,
                54.3972922
              ],
              [
                -4.4611331,
                54.3987811
              ],
              [
                -4.4580164,
                54.3998297
              ],
              [
                -4.4569729,
                54.4002596
              ],
              [
                -4.4557044,
                54.4006371
              ],
              [
                -4.4541361,
                54.4011411
              ],
              [
                -4.4533819,
                54.4012491
              ],
              [
                -4.45263,
                54.4012159
              ],
              [
                -4.4519616,
                54.4011032
              ],
              [
                -4.4514882,
                54.4011826
              ],
              [
                -4.4499536,
                54.401324
              ],
              [
                -4.448329,
                54.4015788
              ],
              [
                -4.4466016,
                54.4017482
              ],
              [
                -4.4426556,
                54.4024917
              ],
              [
                -4.4392157,
                54.4026486
              ],
              [
                -4.4361455,
                54.402702
              ],
              [
                -4.4345809,
                54.4029391
              ],
              [
                -4.4291005,
                54.4036888
              ],
              [
                -4.4271685,
                54.4040066
              ],
              [
                -4.4218229,
                54.4050283
              ],
              [
                -4.4181834,
                54.405672
              ],
              [
                -4.4111329,
                54.407017
              ],
              [
                -4.4097462,
                54.4073226
              ],
              [
                -4.4061192,
                54.4084033
              ],
              [
                -4.4032656,
                54.4092351
              ],
              [
                -4.4011043,
                54.4098393
              ],
              [
                -4.3966255,
                54.4110911
              ],
              [
                -4.3945971,
                54.4116555
              ],
              [
                -4.3916092,
                54.4123988
              ],
              [
                -4.3811103,
                54.4148879
              ],
              [
                -4.3671319,
                54.4178057
              ],
              [
                -4.3665093,
                54.4178602
              ],
              [
                -4.3657201,
                54.4179892
              ],
              [
                -4.3648195,
                54.4179049
              ],
              [
                -4.3639903,
                54.4177231
              ],
              [
                -4.3632801,
                54.4174883
              ],
              [
                -4.3628021,
                54.417258
              ],
              [
                -4.3622019,
                54.4168534
              ],
              [
                -4.3618332,
                54.4165332
              ],
              [
                -4.3615318,
                54.4161591
              ],
              [
                -4.3613627,
                54.4156438
              ],
              [
                -4.3612443,
                54.4150235
              ],
              [
                -4.3612368,
                54.414017
              ],
              [
                -4.361263,
                54.4129535
              ],
              [
                -4.3613945,
                54.4109215
              ],
              [
                -4.3613656,
                54.4087937
              ],
              [
                -4.3611083,
                54.4064778
              ],
              [
                -4.3611848,
                54.4046353
              ],
              [
                -4.3614546,
                54.4028054
              ],
              [
                -4.3616816,
                54.3981071
              ],
              [
                -4.3618428,
                54.3961509
              ],
              [
                -4.3623184,
                54.3933228
              ],
              [
                -4.3626017,
                54.3916209
              ],
              [
                -4.3636368,
                54.3881039
              ],
              [
                -4.3642929,
                54.3865854
              ],
              [
                -4.3656854,
                54.3836052
              ],
              [
                -4.3665228,
                54.3814296
              ],
              [
                -4.3678087,
                54.3779098
              ],
              [
                -4.3698981,
                54.3745753
              ],
              [
                -4.3720947,
                54.3715264
              ],
              [
                -4.3730186,
                54.3703465
              ],
              [
                -4.3732402,
                54.3699736
              ],
              [
                -4.3737971,
                54.3691403
              ],
              [
                -4.3743621,
                54.3681736
              ],
              [
                -4.3746184,
                54.3677178
              ],
              [
                -4.3754701,
                54.3664093
              ],
              [
                -4.3761279,
                54.3651758
              ],
              [
                -4.3768248,
                54.3640511
              ],
              [
                -4.3775718,
                54.3628157
              ],
              [
                -4.3783078,
                54.361434
              ],
              [
                -4.3789502,
                54.3600465
              ],
              [
                -4.3792093,
                54.359483
              ],
              [
                -4.3794625,
                54.3589326
              ],
              [
                -4.3798864,
                54.3577475
              ],
              [
                -4.380265,
                54.3568046
              ],
              [
                -4.3807232,
                54.3554785
              ],
              [
                -4.3809607,
                54.354865
              ],
              [
                -4.3811765,
                54.3543902
              ],
              [
                -4.3816859,
                54.3530537
              ],
              [
                -4.3820505,
                54.3521327
              ],
              [
                -4.3822556,
                54.3516106
              ],
              [
                -4.3823565,
                54.3513538
              ],
              [
                -4.3825,
                54.3508486
              ],
              [
                -4.3830244,
                54.3492411
              ],
              [
                -4.3833472,
                54.3477194
              ],
              [
                -4.3836211,
                54.3465686
              ],
              [
                -4.3838894,
                54.3449583
              ],
              [
                -4.3841514,
                54.3430381
              ],
              [
                -4.3842652,
                54.3415157
              ],
              [
                -4.3841962,
                54.340409
              ],
              [
                -4.3840561,
                54.3389826
              ],
              [
                -4.3837895,
                54.3376021
              ],
              [
                -4.3868668,
                54.3375518
              ],
              [
                -4.388984,
                54.3380222
              ],
              [
                -4.3904358,
                54.3383447
              ],
              [
                -4.3921761,
                54.3378383
              ],
              [
                -4.3952205,
                54.3365117
              ],
              [
                -4.3950631,
                54.3361446
              ],
              [
                -4.3967002,
                54.3349453
              ],
              [
                -4.3971305,
                54.3351228
              ],
              [
                -4.3977601,
                54.3345843
              ],
              [
                -4.3978913,
                54.3342764
              ],
              [
                -4.398117,
                54.3340642
              ],
              [
                -4.3989459,
                54.33444
              ],
              [
                -4.4008198,
                54.3332926
              ],
              [
                -4.4013339,
                54.3321519
              ],
              [
                -4.4035114,
                54.3319961
              ],
              [
                -4.4037869,
                54.3320803
              ],
              [
                -4.403828,
                54.3319781
              ],
              [
                -4.4039328,
                54.331718
              ],
              [
                -4.4039829,
                54.3315935
              ],
              [
                -4.4041411,
                54.3312006
              ],
              [
                -4.4041935,
                54.3304816
              ],
              [
                -4.4044893,
                54.3299755
              ],
              [
                -4.4037392,
                54.329881
              ],
              [
                -4.403276,
                54.3298227
              ],
              [
                -4.4034001,
                54.3295188
              ],
              [
                -4.4031463,
                54.3294712
              ],
              [
                -4.4035257,
                54.3291513
              ],
              [
                -4.4036405,
                54.3290546
              ],
              [
                -4.404737,
                54.3281301
              ],
              [
                -4.4047637,
                54.3280097
              ],
              [
                -4.4048029,
                54.3277862
              ],
              [
                -4.4056923,
                54.3274587
              ],
              [
                -4.407367,
                54.3268421
              ],
              [
                -4.4080268,
                54.3265991
              ],
              [
                -4.4088017,
                54.3262623
              ],
              [
                -4.4093076,
                54.3238374
              ],
              [
                -4.4048481,
                54.3237384
              ],
              [
                -4.4050959,
                54.3231639
              ],
              [
                -4.4051221,
                54.3225722
              ],
              [
                -4.4053958,
                54.3211338
              ],
              [
                -4.4041018,
                54.3212186
              ],
              [
                -4.4007567,
                54.3210273
              ],
              [
                -4.4008575,
                54.32059
              ],
              [
                -4.3986709,
                54.3203846
              ],
              [
                -4.3986971,
                54.3193517
              ],
              [
                -4.3948141,
                54.3191451
              ],
              [
                -4.3946961,
                54.3193593
              ],
              [
                -4.3915955,
                54.3191226
              ],
              [
                -4.3915564,
                54.3182355
              ],
              [
                -4.3917091,
                54.3179456
              ],
              [
                -4.3925429,
                54.3178918
              ],
              [
                -4.3940914,
                54.3172174
              ],
              [
                -4.3965827,
                54.3160468
              ],
              [
                -4.3965238,
                54.3158885
              ],
              [
                -4.3985459,
                54.3149714
              ],
              [
                -4.3992155,
                54.3140871
              ],
              [
                -4.3993114,
                54.3137892
              ],
              [
                -4.3995721,
                54.3136711
              ],
              [
                -4.3999172,
                54.3134966
              ],
              [
                -4.4000898,
                54.312953
              ],
              [
                -4.3999517,
                54.3124229
              ],
              [
                -4.3997907,
                54.3121075
              ],
              [
                -4.3997792,
                54.3113693
              ],
              [
                -4.3999977,
                54.3112149
              ],
              [
                -4.3999123,
                54.3111431
              ],
              [
                -4.3996066,
                54.3108861
              ],
              [
                -4.3996185,
                54.3105844
              ],
              [
                -4.399135,
                54.3101412
              ],
              [
                -4.3991195,
                54.3096846
              ],
              [
                -4.3985713,
                54.3094029
              ],
              [
                -4.3982681,
                54.3090928
              ],
              [
                -4.398199,
                54.3090221
              ],
              [
                -4.397697,
                54.3087721
              ],
              [
                -4.3974221,
                54.3085929
              ],
              [
                -4.3973656,
                54.3085561
              ],
              [
                -4.397272,
                54.308495
              ],
              [
                -4.3968803,
                54.3082822
              ],
              [
                -4.3962821,
                54.3081546
              ],
              [
                -4.3952617,
                54.3076093
              ],
              [
                -4.395039,
                54.3074902
              ],
              [
                -4.3949017,
                54.3076446
              ],
              [
                -4.393714,
                54.307247
              ],
              [
                -4.3931762,
                54.3071278
              ],
              [
                -4.3929461,
                54.3068526
              ],
              [
                -4.3931992,
                54.3066244
              ],
              [
                -4.3930602,
                54.3061157
              ],
              [
                -4.3930481,
                54.3060713
              ],
              [
                -4.3929461,
                54.3056982
              ],
              [
                -4.392815,
                54.3049012
              ],
              [
                -4.3924791,
                54.3034684
              ],
              [
                -4.3923367,
                54.3022484
              ],
              [
                -4.3922616,
                54.3016053
              ],
              [
                -4.3923938,
                54.3011354
              ],
              [
                -4.3927333,
                54.2999289
              ],
              [
                -4.3925907,
                54.2941837
              ],
              [
                -4.392615,
                54.2905391
              ],
              [
                -4.3944803,
                54.2900252
              ],
              [
                -4.3992001,
                54.2891521
              ],
              [
                -4.4053351,
                54.2869981
              ],
              [
                -4.4093416,
                54.2856663
              ],
              [
                -4.4115871,
                54.2850109
              ],
              [
                -4.4134145,
                54.284299
              ],
              [
                -4.4165197,
                54.2829855
              ],
              [
                -4.4172931,
                54.2822942
              ],
              [
                -4.4199854,
                54.2814907
              ],
              [
                -4.423537,
                54.279974
              ],
              [
                -4.4276642,
                54.2783957
              ],
              [
                -4.4343692,
                54.2726211
              ],
              [
                -4.4389642,
                54.2699357
              ],
              [
                -4.4418637,
                54.2672654
              ],
              [
                -4.4455069,
                54.2674539
              ],
              [
                -4.4455769,
                54.26745
              ],
              [
                -4.4456379,
                54.2674344
              ],
              [
                -4.4456808,
                54.2673828
              ],
              [
                -4.4457293,
                54.2672853
              ],
              [
                -4.4458569,
                54.267233
              ],
              [
                -4.4460334,
                54.267285
              ],
              [
                -4.4461623,
                54.2672558
              ],
              [
                -4.4463765,
                54.2672769
              ],
              [
                -4.4464624,
                54.267231
              ],
              [
                -4.4465303,
                54.2671567
              ],
              [
                -4.4465758,
                54.2670182
              ],
              [
                -4.4466313,
                54.2669495
              ],
              [
                -4.4467846,
                54.266902
              ],
              [
                -4.4468603,
                54.2668172
              ],
              [
                -4.4473387,
                54.2668011
              ],
              [
                -4.4474317,
                54.2668769
              ],
              [
                -4.447531,
                54.2669195
              ],
              [
                -4.4476437,
                54.2669325
              ],
              [
                -4.4477515,
                54.2669188
              ],
              [
                -4.4478081,
                54.2668979
              ],
              [
                -4.4478599,
                54.2668525
              ],
              [
                -4.4479083,
                54.2668351
              ],
              [
                -4.4479714,
                54.2668172
              ],
              [
                -4.4480445,
                54.2667882
              ],
              [
                -4.448129,
                54.2667707
              ],
              [
                -4.4481945,
                54.2667532
              ],
              [
                -4.4482775,
                54.2667658
              ],
              [
                -4.448366,
                54.2667412
              ],
              [
                -4.4484288,
                54.2666939
              ],
              [
                -4.4484654,
                54.266622
              ],
              [
                -4.4485375,
                54.2665548
              ],
              [
                -4.448661,
                54.2664177
              ],
              [
                -4.4487545,
                54.2662989
              ],
              [
                -4.448859,
                54.2662476
              ],
              [
                -4.4490223,
                54.2662386
              ],
              [
                -4.4491381,
                54.2662289
              ],
              [
                -4.4490764,
                54.2660266
              ],
              [
                -4.4488113,
                54.2653422
              ],
              [
                -4.4486797,
                54.2650159
              ],
              [
                -4.4486272,
                54.264869
              ],
              [
                -4.4485869,
                54.2647189
              ],
              [
                -4.4485628,
                54.2645741
              ],
              [
                -4.4485349,
                54.2643005
              ],
              [
                -4.4485081,
                54.2640255
              ],
              [
                -4.4485024,
                54.2638679
              ],
              [
                -4.4485172,
                54.2637255
              ],
              [
                -4.4485601,
                54.263559
              ],
              [
                -4.448688,
                54.2631727
              ],
              [
                -4.448777,
                54.2629856
              ],
              [
                -4.4488411,
                54.2628872
              ],
              [
                -4.4489274,
                54.2627746
              ],
              [
                -4.4492787,
                54.2623885
              ],
              [
                -4.4494082,
                54.2622556
              ],
              [
                -4.4495338,
                54.2621431
              ],
              [
                -4.4496947,
                54.2620211
              ],
              [
                -4.4499173,
                54.2618873
              ],
              [
                -4.4507994,
                54.2613716
              ],
              [
                -4.4532677,
                54.2599422
              ],
              [
                -4.4540387,
                54.2594925
              ],
              [
                -4.4546333,
                54.259162
              ],
              [
                -4.4550028,
                54.2589706
              ],
              [
                -4.4553429,
                54.2588133
              ],
              [
                -4.4556151,
                54.2586953
              ],
              [
                -4.4558736,
                54.2585896
              ],
              [
                -4.4561891,
                54.2584706
              ],
              [
                -4.4565768,
                54.2583291
              ],
              [
                -4.4572558,
                54.2580808
              ],
              [
                -4.4575007,
                54.2579836
              ],
              [
                -4.4576395,
                54.2579275
              ],
              [
                -4.4577842,
                54.2578602
              ],
              [
                -4.4579258,
                54.2577885
              ],
              [
                -4.4580728,
                54.2576947
              ],
              [
                -4.4581796,
                54.2576135
              ],
              [
                -4.4582814,
                54.2575222
              ],
              [
                -4.4583727,
                54.2574244
              ],
              [
                -4.4584427,
                54.2573383
              ],
              [
                -4.458512,
                54.2572195
              ],
              [
                -4.4585745,
                54.2570947
              ],
              [
                -4.4586134,
                54.2569727
              ],
              [
                -4.4586478,
                54.2568502
              ],
              [
                -4.4587481,
                54.2563613
              ],
              [
                -4.4589628,
                54.2552814
              ],
              [
                -4.4589995,
                54.2550921
              ],
              [
                -4.4590222,
                54.2549917
              ],
              [
                -4.4590582,
                54.2548843
              ],
              [
                -4.4590969,
                54.2547863
              ],
              [
                -4.4591418,
                54.2546951
              ],
              [
                -4.459187,
                54.25461
              ],
              [
                -4.4592411,
                54.2545276
              ],
              [
                -4.4593103,
                54.2544177
              ],
              [
                -4.4593863,
                54.254305
              ],
              [
                -4.4597541,
                54.2538084
              ],
              [
                -4.4598645,
                54.2536807
              ],
              [
                -4.4599667,
                54.2535717
              ],
              [
                -4.460166,
                54.2533951
              ],
              [
                -4.4604374,
                54.2531614
              ],
              [
                -4.4605861,
                54.2530525
              ],
              [
                -4.4607324,
                54.2529534
              ],
              [
                -4.4609159,
                54.2528442
              ],
              [
                -4.4611128,
                54.252738
              ],
              [
                -4.4613906,
                54.2526088
              ],
              [
                -4.4624776,
                54.2521554
              ],
              [
                -4.4626667,
                54.2520751
              ],
              [
                -4.4627982,
                54.2520002
              ],
              [
                -4.4628862,
                54.2519461
              ],
              [
                -4.462957,
                54.2518872
              ],
              [
                -4.463013,
                54.2518244
              ],
              [
                -4.4630534,
                54.2517558
              ],
              [
                -4.4630832,
                54.2516773
              ],
              [
                -4.4630958,
                54.2516156
              ],
              [
                -4.4631049,
                54.2515482
              ],
              [
                -4.4631072,
                54.251441
              ],
              [
                -4.4631004,
                54.251323
              ],
              [
                -4.4630986,
                54.2512933
              ],
              [
                -4.4630948,
                54.2512276
              ],
              [
                -4.4630934,
                54.2511653
              ],
              [
                -4.4630852,
                54.2510573
              ],
              [
                -4.4630807,
                54.2509896
              ],
              [
                -4.4630874,
                54.2508356
              ],
              [
                -4.4631005,
                54.2507778
              ],
              [
                -4.463116,
                54.2507091
              ],
              [
                -4.4631372,
                54.2506567
              ],
              [
                -4.4620111,
                54.2473862
              ],
              [
                -4.4722112,
                54.2432328
              ],
              [
                -4.47312,
                54.2430909
              ],
              [
                -4.4784672,
                54.2423523
              ],
              [
                -4.4867057,
                54.241686
              ],
              [
                -4.497049,
                54.2430721
              ],
              [
                -4.49643,
                54.2446822
              ],
              [
                -4.4985134,
                54.2456661
              ],
              [
                -4.4993761,
                54.2462976
              ],
              [
                -4.4997502,
                54.2471244
              ],
              [
                -4.499684,
                54.2474298
              ],
              [
                -4.499414,
                54.2479074
              ],
              [
                -4.4994626,
                54.248542
              ],
              [
                -4.4998997,
                54.2490642
              ],
              [
                -4.5008095,
                54.2498325
              ],
              [
                -4.5010715,
                54.2500951
              ],
              [
                -4.5011997,
                54.2507056
              ],
              [
                -4.5016856,
                54.2513078
              ],
              [
                -4.501693,
                54.2516691
              ],
              [
                -4.5020286,
                54.2520459
              ],
              [
                -4.5024379,
                54.2528525
              ],
              [
                -4.5028275,
                54.2531804
              ],
              [
                -4.5029519,
                54.2534498
              ],
              [
                -4.5035777,
                54.2543874
              ],
              [
                -4.5036403,
                54.254908
              ],
              [
                -4.5036033,
                54.25538
              ],
              [
                -4.5033473,
                54.255988
              ],
              [
                -4.5028673,
                54.2564948
              ],
              [
                -4.5029593,
                54.2568302
              ],
              [
                -4.5027954,
                54.2569356
              ],
              [
                -4.5025117,
                54.257118
              ],
              [
                -4.5023594,
                54.2579297
              ],
              [
                -4.5026121,
                54.2587459
              ],
              [
                -4.502789,
                54.2590978
              ],
              [
                -4.503112892,
                54.259370205
              ],
              [
                -4.5033168,
                54.2595417
              ],
              [
                -4.503350597,
                54.259570205
              ],
              [
                -4.5041381,
                54.2602344
              ]
            ]
          ]
        ]
      },
      "properties": {
        "osm_id": -1061144,
        "name": "Ayre",
        "name_en": null,
        "boundary": "administrative",
        "admin_level": 6,
        "admin_centre_node_id": null,
        "admin_centre_node_lat": null,
        "admin_centre_node_lng": null,
        "label_node_id": null,
        "label_node_lat": null,
        "label_node_lng": null
      }
    }
  ]
}