{
  "type": "FeatureCollection",
  "features": [
    {
      "type": "Feature",
      "geometry": {
        "type": "MultiPolygon",
        "coordinates": [
          [
            [
              [
                -4.5515806,
                54.2315771
              ],
              [
                -4.554593,
                54.232877
              ],
              [
                -4.557666,
                54.234301
              ],
              [
                -4.562066,
                54.235946
              ],
              [
                -4.56679,
                54.237513
              ],
              [
                -4.56882,
                54.238616
              ],
              [
                -4.571156,
                54.240053
              ],
              [
                -4.574829,
                54.241926
              ],
              [
                -4.577288,
                54.243361
              ],
              [
                -4.579748,
                54.243273
              ],
              [
                -4.581215,
                54.243056
              ],
              [
                -4.582488,
                54.24306
              ],
              [
                -4.58366,
                54.242703
              ],
              [
                -4.584737,
                54.242107
              ],
              [
                -4.585439,
                54.241419
              ],
              [
                -4.586435,
                54.240848
              ],
              [
                -4.589573,
                54.24116
              ],
              [
                -4.591308,
                54.24135
              ],
              [
                -4.592514,
                54.24162
              ],
              [
                -4.5938279,
                54.2421971
              ],
              [
                -4.5951174,
                54.2424188
              ],
              [
                -4.5956598,
                54.2426717
              ],
              [
                -4.595998,
                54.243014
              ],
              [
                -4.5960317,
                54.2435395
              ],
              [
                -4.5959304,
                54.243893
              ],
              [
                -4.595989,
                54.2441428
              ],
              [
                -4.5961718,
                54.2444859
              ],
              [
                -4.5966564,
                54.2450677
              ],
              [
                -4.5967757,
                54.245269
              ],
              [
                -4.5968489,
                54.2453496
              ],
              [
                -4.597548,
                54.246612
              ],
              [
                -4.59841,
                54.24812
              ],
              [
                -4.598843,
                54.249297
              ],
              [
                -4.599486,
                54.249794
              ],
              [
                -4.598811,
                54.250988
              ],
              [
                -4.599122,
                54.251418
              ],
              [
                -4.598979,
                54.253328
              ],
              [
                -4.599866,
                54.253024
              ],
              [
                -4.601819,
                54.252679
              ],
              [
                -4.602405,
                54.252863
              ],
              [
                -4.604414,
                54.252807
              ],
              [
                -4.605796,
                54.25404
              ],
              [
                -4.606931,
                54.25453
              ],
              [
                -4.60707,
                54.255566
              ],
              [
                -4.609675,
                54.256635
              ],
              [
                -4.609981,
                54.257741
              ],
              [
                -4.612519,
                54.259826
              ],
              [
                -4.615534,
                54.260889
              ],
              [
                -4.6196749,
                54.2637141
              ],
              [
                -4.6196315,
                54.2637394
              ],
              [
                -4.6192236,
                54.2641062
              ],
              [
                -4.6189307,
                54.2643601
              ],
              [
                -4.6185944,
                54.2648084
              ],
              [
                -4.6185754,
                54.265041
              ],
              [
                -4.6183318,
                54.2652967
              ],
              [
                -4.6181358,
                54.2654991
              ],
              [
                -4.6179022,
                54.2657463
              ],
              [
                -4.6172826,
                54.266191
              ],
              [
                -4.6170179,
                54.2665149
              ],
              [
                -4.6166938,
                54.266851
              ],
              [
                -4.6169148,
                54.2669898
              ],
              [
                -4.6165921,
                54.2670849
              ],
              [
                -4.616278,
                54.2671166
              ],
              [
                -4.6161245,
                54.2670598
              ],
              [
                -4.6160103,
                54.2671039
              ],
              [
                -4.6160261,
                54.2671834
              ],
              [
                -4.6159971,
                54.2672412
              ],
              [
                -4.6158819,
                54.2672542
              ],
              [
                -4.615755,
                54.2671543
              ],
              [
                -4.6155326,
                54.2672774
              ],
              [
                -4.6152403,
                54.2674232
              ],
              [
                -4.6150229,
                54.2677506
              ],
              [
                -4.6141046,
                54.2683886
              ],
              [
                -4.6130996,
                54.2687076
              ],
              [
                -4.6123391,
                54.2690417
              ],
              [
                -4.6113201,
                54.2694975
              ],
              [
                -4.6107869,
                54.2700039
              ],
              [
                -4.610458,
                54.2702937
              ],
              [
                -4.6097886,
                54.270952
              ],
              [
                -4.6094029,
                54.2712715
              ],
              [
                -4.6089616,
                54.2718057
              ],
              [
                -4.6088835,
                54.2719189
              ],
              [
                -4.6087945,
                54.2719908
              ],
              [
                -4.6085532,
                54.2721841
              ],
              [
                -4.6072003,
                54.2735887
              ],
              [
                -4.60539,
                54.2758977
              ],
              [
                -4.6048558,
                54.2764637
              ],
              [
                -4.6032831,
                54.2777892
              ],
              [
                -4.6002549,
                54.2804489
              ],
              [
                -4.5993569,
                54.2815381
              ],
              [
                -4.5985275,
                54.2825404
              ],
              [
                -4.5979637,
                54.2832342
              ],
              [
                -4.5963318,
                54.2845132
              ],
              [
                -4.5946638,
                54.2864292
              ],
              [
                -4.5933946,
                54.2883287
              ],
              [
                -4.5924725,
                54.2896118
              ],
              [
                -4.5920405,
                54.2901992
              ],
              [
                -4.5904849,
                54.2925674
              ],
              [
                -4.5888485,
                54.2950298
              ],
              [
                -4.5881518,
                54.2965069
              ],
              [
                -4.5873143,
                54.2980746
              ],
              [
                -4.5868385,
                54.2989946
              ],
              [
                -4.5867151,
                54.2992855
              ],
              [
                -4.5863406,
                54.3000449
              ],
              [
                -4.5862296,
                54.3004794
              ],
              [
                -4.5859448,
                54.3015155
              ],
              [
                -4.585123,
                54.303652
              ],
              [
                -4.5840673,
                54.3055912
              ],
              [
                -4.583482,
                54.3065025
              ],
              [
                -4.5818116,
                54.3087135
              ],
              [
                -4.5808354,
                54.310237
              ],
              [
                -4.5792571,
                54.312199
              ],
              [
                -4.5787628,
                54.3129505
              ],
              [
                -4.5763837,
                54.3160087
              ],
              [
                -4.5754274,
                54.3172816
              ],
              [
                -4.5729154,
                54.3203588
              ],
              [
                -4.5693819,
                54.3248692
              ],
              [
                -4.5675139,
                54.3268552
              ],
              [
                -4.5648969,
                54.3286852
              ],
              [
                -4.5629844,
                54.3301706
              ],
              [
                -4.5610382,
                54.3319034
              ],
              [
                -4.5604079,
                54.3326933
              ],
              [
                -4.559329,
                54.3337497
              ],
              [
                -4.558444,
                54.3346159
              ],
              [
                -4.557329,
                54.3360258
              ],
              [
                -4.5552975,
                54.3398345
              ],
              [
                -4.5552173,
                54.3402102
              ],
              [
                -4.5551078,
                54.3403659
              ],
              [
                -4.5550996,
                54.3403971
              ],
              [
                -4.5550692,
                54.3404459
              ],
              [
                -4.5549764,
                54.3405769
              ],
              [
                -4.5549574,
                54.3406037
              ],
              [
                -4.554183,
                54.3426844
              ],
              [
                -4.5540065,
                54.343119
              ],
              [
                -4.552869,
                54.3461573
              ],
              [
                -4.5518656,
                54.3486763
              ],
              [
                -4.55101375,
                54.351268496
              ],
              [
                -4.5505685,
                54.3526234
              ],
              [
                -4.5501897,
                54.3530643
              ],
              [
                -4.5477331,
                54.356961
              ],
              [
                -4.545987,
                54.3586251
              ],
              [
                -4.5438795,
                54.3607872
              ],
              [
                -4.5425822,
                54.3616569
              ],
              [
                -4.5400673,
                54.363426
              ],
              [
                -4.5370845,
                54.3662598
              ],
              [
                -4.5342594,
                54.3684078
              ],
              [
                -4.5292835,
                54.3714363
              ],
              [
                -4.5277537,
                54.3721866
              ],
              [
                -4.5251501,
                54.3732262
              ],
              [
                -4.5226608,
                54.3741452
              ],
              [
                -4.516674,
                54.3762295
              ],
              [
                -4.5119598,
                54.3782369
              ],
              [
                -4.5065041,
                54.3806805
              ],
              [
                -4.4996965,
                54.3837673
              ],
              [
                -4.4999699,
                54.3819292
              ],
              [
                -4.5001368,
                54.3809181
              ],
              [
                -4.5006782,
                54.3786484
              ],
              [
                -4.5007925,
                54.378183
              ],
              [
                -4.5006419,
                54.3779213
              ],
              [
                -4.5000247,
                54.3764805
              ],
              [
                -4.4997079,
                54.37622
              ],
              [
                -4.499763,
                54.3758031
              ],
              [
                -4.5000537,
                54.3753712
              ],
              [
                -4.4999718,
                54.3750458
              ],
              [
                -4.4993962,
                54.3749637
              ],
              [
                -4.4988628,
                54.3739809
              ],
              [
                -4.4984758,
                54.3737399
              ],
              [
                -4.4965602,
                54.3730404
              ],
              [
                -4.4954319,
                54.3724185
              ],
              [
                -4.4946248,
                54.3721894
              ],
              [
                -4.4935713,
                54.3715041
              ],
              [
                -4.4931271,
                54.3715191
              ],
              [
                -4.4906626,
                54.3710975
              ],
              [
                -4.4896715,
                54.3710544
              ],
              [
                -4.488514,
                54.371122
              ],
              [
                -4.4869189,
                54.3713058
              ],
              [
                -4.486192,
                54.371595
              ],
              [
                -4.4831458,
                54.3720854
              ],
              [
                -4.4817339,
                54.3722462
              ],
              [
                -4.4805625,
                54.3722498
              ],
              [
                -4.4788352,
                54.3720173
              ],
              [
                -4.4763804,
                54.3717734
              ],
              [
                -4.4751074,
                54.3717316
              ],
              [
                -4.4736523,
                54.3712978
              ],
              [
                -4.4721602,
                54.3707036
              ],
              [
                -4.471623,
                54.370067
              ],
              [
                -4.471268,
                54.3696971
              ],
              [
                -4.4709315,
                54.369155
              ],
              [
                -4.4709242,
                54.3686865
              ],
              [
                -4.4710336,
                54.368283
              ],
              [
                -4.4715002,
                54.3676545
              ],
              [
                -4.4716169,
                54.366953
              ],
              [
                -4.4714092,
                54.3654258
              ],
              [
                -4.4717491,
                54.3653641
              ],
              [
                -4.4716742,
                54.3648125
              ],
              [
                -4.4720095,
                54.3643188
              ],
              [
                -4.4720045,
                54.3640731
              ],
              [
                -4.4724813,
                54.3630028
              ],
              [
                -4.4736232,
                54.360634
              ],
              [
                -4.4739087,
                54.3602547
              ],
              [
                -4.473819,
                54.3598334
              ],
              [
                -4.4745613,
                54.3568464
              ],
              [
                -4.4749898,
                54.3564829
              ],
              [
                -4.4749682,
                54.3560673
              ],
              [
                -4.4751378,
                54.3559064
              ],
              [
                -4.4754395,
                54.3558559
              ],
              [
                -4.4757458,
                54.3552629
              ],
              [
                -4.4756985,
                54.3550299
              ],
              [
                -4.476325,
                54.3538227
              ],
              [
                -4.4770525,
                54.3528545
              ],
              [
                -4.4777364,
                54.3528121
              ],
              [
                -4.4775255,
                54.3524726
              ],
              [
                -4.4780956,
                54.3515601
              ],
              [
                -4.4792069,
                54.3508537
              ],
              [
                -4.480598,
                54.350208
              ],
              [
                -4.4812542,
                54.3490098
              ],
              [
                -4.4835669,
                54.3478711
              ],
              [
                -4.4864515,
                54.346407
              ],
              [
                -4.4866756,
                54.3462709
              ],
              [
                -4.4870582,
                54.3460555
              ],
              [
                -4.4879862,
                54.3453414
              ],
              [
                -4.489688,
                54.3440102
              ],
              [
                -4.4911127,
                54.3428915
              ],
              [
                -4.4927711,
                54.3417479
              ],
              [
                -4.493451,
                54.34099
              ],
              [
                -4.4965936,
                54.3385268
              ],
              [
                -4.5004637,
                54.3362024
              ],
              [
                -4.5049008,
                54.3338967
              ],
              [
                -4.5046421,
                54.3330026
              ],
              [
                -4.5047187,
                54.3320172
              ],
              [
                -4.5051798,
                54.3303604
              ],
              [
                -4.5056166,
                54.3301608
              ],
              [
                -4.5054016,
                54.3298359
              ],
              [
                -4.5066832,
                54.326888
              ],
              [
                -4.5071484,
                54.3261504
              ],
              [
                -4.5073973,
                54.3248538
              ],
              [
                -4.508315,
                54.323115
              ],
              [
                -4.509186,
                54.320903
              ],
              [
                -4.509641,
                54.319374
              ],
              [
                -4.510089,
                54.317724
              ],
              [
                -4.510056,
                54.316299
              ],
              [
                -4.510052,
                54.314656
              ],
              [
                -4.5099857,
                54.3143405
              ],
              [
                -4.509723,
                54.313091
              ],
              [
                -4.509107,
                54.311531
              ],
              [
                -4.508986,
                54.310784
              ],
              [
                -4.509029,
                54.310035
              ],
              [
                -4.509441,
                54.308482
              ],
              [
                -4.511579,
                54.302988
              ],
              [
                -4.512993,
                54.299366
              ],
              [
                -4.512881,
                54.298812
              ],
              [
                -4.507472,
                54.290492
              ],
              [
                -4.515044,
                54.283607
              ],
              [
                -4.5045266,
                54.2779053
              ],
              [
                -4.5012265,
                54.2761161
              ],
              [
                -4.5010568,
                54.2745827
              ],
              [
                -4.5012918,
                54.2738955
              ],
              [
                -4.5011203,
                54.2730496
              ],
              [
                -4.5014711,
                54.2720948
              ],
              [
                -4.5015333,
                54.27167
              ],
              [
                -4.5014056,
                54.2711707
              ],
              [
                -4.5019485,
                54.2703832
              ],
              [
                -4.501882,
                54.2700354
              ],
              [
                -4.5015419,
                54.2694559
              ],
              [
                -4.5018831,
                54.2689246
              ],
              [
                -4.5018949,
                54.2684985
              ],
              [
                -4.5025526,
                54.2680086
              ],
              [
                -4.5027446,
                54.2672686
              ],
              [
                -4.503493,
                54.267075
              ],
              [
                -4.504289,
                54.266579
              ],
              [
                -4.5043711,
                54.2663137
              ],
              [
                -4.505061,
                54.2659352
              ],
              [
                -4.5054976,
                54.2657084
              ],
              [
                -4.5066005,
                54.2657209
              ],
              [
                -4.5079706,
                54.2656483
              ],
              [
                -4.5085457,
                54.265271
              ],
              [
                -4.5095284,
                54.2654308
              ],
              [
                -4.51014,
                54.2654277
              ],
              [
                -4.510629,
                54.265246
              ],
              [
                -4.5115508,
                54.2651119
              ],
              [
                -4.511936,
                54.2647096
              ],
              [
                -4.51332,
                54.2644019
              ],
              [
                -4.5139144,
                54.2639727
              ],
              [
                -4.514586,
                54.2638336
              ],
              [
                -4.5146751,
                54.2634564
              ],
              [
                -4.5147448,
                54.2630491
              ],
              [
                -4.514512,
                54.263019
              ],
              [
                -4.5142491,
                54.2625753
              ],
              [
                -4.513659,
                54.2616679
              ],
              [
                -4.5133543,
                54.2614774
              ],
              [
                -4.513173,
                54.2611735
              ],
              [
                -4.5130851,
                54.2607969
              ],
              [
                -4.5132739,
                54.2605819
              ],
              [
                -4.513681321,
                54.259570205
              ],
              [
                -4.51377,
                54.25935
              ],
              [
                -4.513641,
                54.257661
              ],
              [
                -4.513354,
                54.256893
              ],
              [
                -4.513316,
                54.256169
              ],
              [
                -4.510146,
                54.25448
              ],
              [
                -4.512339,
                54.248502
              ],
              [
                -4.529101,
                54.243911
              ],
              [
                -4.532671,
                54.243081
              ],
              [
                -4.5371583,
                54.2418021
              ],
              [
                -4.5399907,
                54.2409996
              ],
              [
                -4.5425227,
                54.2398459
              ],
              [
                -4.5452483,
                54.2375936
              ],
              [
                -4.547445,
                54.236686
              ],
              [
                -4.546718,
                54.236142
              ],
              [
                -4.55101375,
                54.232109246
              ],
              [
                -4.5515806,
                54.2315771
              ]
            ]
          ]
        ]
      },
      "properties": {
        "osm_id": -1028022,
        "name": "Michael",
        "name_en": null,
        "boundary": "administrative",
        "admin_level": 6,
        "admin_centre_node_id": null,
        "admin_centre_node_lat": null,
        "admin_centre_node_lng": null,
        "label_node_id": null,
        "label_node_lat": null,
        "label_node_lng": null
      }
    }
  ]
}