{
  "type": "FeatureCollection",
  "features": [
    {
      "type": "Feature",
      "geometry": {
        "type": "MultiPolygon",
        "coordinates": [
          [
            [
              [
                -63.0009407,
                17.516907
              ],
              [
                -63.0009391,
                17.5169263
              ],
              [
                -63.0009222,
                17.5169431
              ],
              [
                -63.0009113,
                17.5169584
              ],
              [
                -63.0008919,
                17.5169752
              ],
              [
                -63.0008684,
                17.5169832
              ],
              [
                -63.0008355,
                17.5169832
              ],
              [
                -63.0008136,
                17.5169656
              ],
              [
                -63.0008136,
                17.5169383
              ],
              [
                -63.0008111,
                17.516923
              ],
              [
                -63.0008237,
                17.5169078
              ],
              [
                -63.0008431,
                17.5169094
              ],
              [
                -63.0008625,
                17.5168974
              ],
              [
                -63.0008641,
                17.5168789
              ],
              [
                -63.0008557,
                17.5168516
              ],
              [
                -63.0008709,
                17.5168243
              ],
              [
                -63.0008793,
                17.5168099
              ],
              [
                -63.0009037,
                17.5167994
              ],
              [
                -63.000934,
                17.5167946
              ],
              [
                -63.0009407,
                17.5168211
              ],
              [
                -63.0009525,
                17.5168436
              ],
              [
                -63.0009407,
                17.5168885
              ],
              [
                -63.0009407,
                17.516907
              ]
            ]
          ],
          [
            [
              [
                -62.9626209,
                17.4650034
              ],
              [
                -62.9627719,
                17.4649514
              ],
              [
                -62.9630583,
                17.4648666
              ],
              [
                -62.9633367,
                17.4648704
              ],
              [
                -62.9640773,
                17.4649514
              ],
              [
                -62.9646638,
                17.4649759
              ],
              [
                -62.9652187,
                17.4649062
              ],
              [
                -62.965979,
                17.464601
              ],
              [
                -62.9662733,
                17.4645784
              ],
              [
                -62.9665754,
                17.4647234
              ],
              [
                -62.9670375,
                17.4648101
              ],
              [
                -62.9674127,
                17.4648666
              ],
              [
                -62.96792,
                17.4647926
              ],
              [
                -62.9681039,
                17.4647969
              ],
              [
                -62.9684436,
                17.464844
              ],
              [
                -62.9690538,
                17.4648082
              ],
              [
                -62.9697272,
                17.4647611
              ],
              [
                -62.9703512,
                17.4648139
              ],
              [
                -62.9710444,
                17.4649514
              ],
              [
                -62.9719014,
                17.4649966
              ],
              [
                -62.9727348,
                17.4651699
              ],
              [
                -62.9732048,
                17.4652321
              ],
              [
                -62.9739375,
                17.4654939
              ],
              [
                -62.9746909,
                17.4656022
              ],
              [
                -62.9755874,
                17.4656964
              ],
              [
                -62.9759093,
                17.4657868
              ],
              [
                -62.9764089,
                17.4660392
              ],
              [
                -62.9770626,
                17.4665535
              ],
              [
                -62.9776057,
                17.4668398
              ],
              [
                -62.9778663,
                17.4671092
              ],
              [
                -62.9780302,
                17.4675462
              ],
              [
                -62.9781606,
                17.4677459
              ],
              [
                -62.9784272,
                17.4679644
              ],
              [
                -62.9787708,
                17.4680888
              ],
              [
                -62.9790552,
                17.4681716
              ],
              [
                -62.9792625,
                17.4681603
              ],
              [
                -62.9793395,
                17.4681415
              ],
              [
                -62.9794259,
                17.4680983
              ],
              [
                -62.9795015,
                17.4680605
              ],
              [
                -62.9796239,
                17.4680172
              ],
              [
                -62.9798273,
                17.4680699
              ],
              [
                -62.9798826,
                17.4680002
              ],
              [
                -62.9799261,
                17.4680115
              ],
              [
                -62.9799419,
                17.4680492
              ],
              [
                -62.9801611,
                17.4681415
              ],
              [
                -62.9803961,
                17.4683468
              ],
              [
                -62.9805777,
                17.4684467
              ],
              [
                -62.9808858,
                17.4687914
              ],
              [
                -62.9813578,
                17.4694413
              ],
              [
                -62.9814641,
                17.4695903
              ],
              [
                -62.9818041,
                17.4700648
              ],
              [
                -62.9819897,
                17.4703549
              ],
              [
                -62.9820537,
                17.4705593
              ],
              [
                -62.9821016,
                17.4706904
              ],
              [
                -62.9821927,
                17.4708478
              ],
              [
                -62.9822958,
                17.4709897
              ],
              [
                -62.9824888,
                17.4711845
              ],
              [
                -62.9825998,
                17.4712738
              ],
              [
                -62.9827176,
                17.4713464
              ],
              [
                -62.9829713,
                17.4714679
              ],
              [
                -62.9830444,
                17.4714907
              ],
              [
                -62.9833563,
                17.4716188
              ],
              [
                -62.9838223,
                17.4720182
              ],
              [
                -62.9840611,
                17.4723761
              ],
              [
                -62.984308,
                17.4727113
              ],
              [
                -62.9846279,
                17.4730203
              ],
              [
                -62.984849,
                17.4733518
              ],
              [
                -62.9849853,
                17.473851
              ],
              [
                -62.985163,
                17.4741542
              ],
              [
                -62.9852835,
                17.4742815
              ],
              [
                -62.9854119,
                17.474499
              ],
              [
                -62.9855288,
                17.4750001
              ],
              [
                -62.9855323,
                17.4750151
              ],
              [
                -62.985558,
                17.4752204
              ],
              [
                -62.9855106,
                17.4754709
              ],
              [
                -62.985604,
                17.4760778
              ],
              [
                -62.9856393,
                17.4764882
              ],
              [
                -62.9856428,
                17.4765292
              ],
              [
                -62.9860131,
                17.4769778
              ],
              [
                -62.9863078,
                17.4774032
              ],
              [
                -62.986391,
                17.4775473
              ],
              [
                -62.9864377,
                17.4775871
              ],
              [
                -62.9864701,
                17.477618
              ],
              [
                -62.9865348,
                17.4776376
              ],
              [
                -62.9866418,
                17.4776615
              ],
              [
                -62.9868997,
                17.4776142
              ],
              [
                -62.9873633,
                17.4775381
              ],
              [
                -62.987701,
                17.4774571
              ],
              [
                -62.9878452,
                17.4774647
              ],
              [
                -62.9879935,
                17.4775418
              ],
              [
                -62.9882429,
                17.4778232
              ],
              [
                -62.9882497,
                17.4778667
              ],
              [
                -62.9882403,
                17.4778884
              ],
              [
                -62.9882228,
                17.4779076
              ],
              [
                -62.9881994,
                17.4779166
              ],
              [
                -62.9881611,
                17.4779127
              ],
              [
                -62.9879291,
                17.4776978
              ],
              [
                -62.9878339,
                17.4776287
              ],
              [
                -62.9877092,
                17.4776108
              ],
              [
                -62.9872693,
                17.4776863
              ],
              [
                -62.9870574,
                17.4777384
              ],
              [
                -62.9871782,
                17.4778687
              ],
              [
                -62.9870329,
                17.4779906
              ],
              [
                -62.9874103,
                17.4783987
              ],
              [
                -62.9873786,
                17.4784263
              ],
              [
                -62.9873481,
                17.4784535
              ],
              [
                -62.9870711,
                17.4781572
              ],
              [
                -62.9867664,
                17.4778267
              ],
              [
                -62.986756,
                17.4778376
              ],
              [
                -62.9866204,
                17.4778555
              ],
              [
                -62.9864249,
                17.4778871
              ],
              [
                -62.9863076,
                17.4780171
              ],
              [
                -62.9862778,
                17.4780917
              ],
              [
                -62.9862742,
                17.4781083
              ],
              [
                -62.986272,
                17.4781233
              ],
              [
                -62.9862741,
                17.4781527
              ],
              [
                -62.9863201,
                17.4781887
              ],
              [
                -62.9863404,
                17.4782853
              ],
              [
                -62.986388,
                17.4783501
              ],
              [
                -62.9864538,
                17.4784247
              ],
              [
                -62.9864871,
                17.4784711
              ],
              [
                -62.9865185,
                17.4785113
              ],
              [
                -62.9865475,
                17.4785619
              ],
              [
                -62.9866802,
                17.4785459
              ],
              [
                -62.9867354,
                17.4789806
              ],
              [
                -62.9867084,
                17.4789851
              ],
              [
                -62.9867144,
                17.4790256
              ],
              [
                -62.9869769,
                17.4789922
              ],
              [
                -62.9869877,
                17.4790519
              ],
              [
                -62.9867121,
                17.4790986
              ],
              [
                -62.9866051,
                17.4791444
              ],
              [
                -62.9866217,
                17.4794326
              ],
              [
                -62.9865891,
                17.4796049
              ],
              [
                -62.9866,
                17.4798243
              ],
              [
                -62.9866335,
                17.4799775
              ],
              [
                -62.9867214,
                17.4802346
              ],
              [
                -62.9869239,
                17.4805622
              ],
              [
                -62.9870664,
                17.48075
              ],
              [
                -62.9871529,
                17.480794
              ],
              [
                -62.9874297,
                17.4813029
              ],
              [
                -62.9875006,
                17.4814333
              ],
              [
                -62.9876004,
                17.4817319
              ],
              [
                -62.9876194,
                17.4817886
              ],
              [
                -62.9876622,
                17.4819199
              ],
              [
                -62.9876772,
                17.4819437
              ],
              [
                -62.9876749,
                17.481959
              ],
              [
                -62.9876726,
                17.481981
              ],
              [
                -62.9876787,
                17.4820003
              ],
              [
                -62.9877124,
                17.4820167
              ],
              [
                -62.9877266,
                17.48205
              ],
              [
                -62.9877334,
                17.4820543
              ],
              [
                -62.987732,
                17.4820663
              ],
              [
                -62.9877194,
                17.4820716
              ],
              [
                -62.9877373,
                17.482103
              ],
              [
                -62.9877481,
                17.4821255
              ],
              [
                -62.9877541,
                17.4821586
              ],
              [
                -62.9877548,
                17.4821792
              ],
              [
                -62.9877539,
                17.4821864
              ],
              [
                -62.9877528,
                17.4821916
              ],
              [
                -62.9877497,
                17.4821985
              ],
              [
                -62.9877472,
                17.4822033
              ],
              [
                -62.9877747,
                17.4822972
              ],
              [
                -62.9877944,
                17.4823639
              ],
              [
                -62.9878082,
                17.4824036
              ],
              [
                -62.9877825,
                17.482422
              ],
              [
                -62.9879419,
                17.4826086
              ],
              [
                -62.9879771,
                17.4826517
              ],
              [
                -62.9880898,
                17.482772
              ],
              [
                -62.9882761,
                17.482951
              ],
              [
                -62.9885405,
                17.4831875
              ],
              [
                -62.9888785,
                17.4835355
              ],
              [
                -62.9891655,
                17.4837926
              ],
              [
                -62.9896094,
                17.4841239
              ],
              [
                -62.9902411,
                17.4846892
              ],
              [
                -62.9904141,
                17.4848491
              ],
              [
                -62.9906514,
                17.48505
              ],
              [
                -62.9909773,
                17.4852278
              ],
              [
                -62.9914071,
                17.4854318
              ],
              [
                -62.9919126,
                17.4856672
              ],
              [
                -62.9926157,
                17.4860854
              ],
              [
                -62.9929018,
                17.4863074
              ],
              [
                -62.9933095,
                17.4866118
              ],
              [
                -62.9936609,
                17.486883
              ],
              [
                -62.9940391,
                17.4871669
              ],
              [
                -62.9945219,
                17.4874944
              ],
              [
                -62.9953828,
                17.4878858
              ],
              [
                -62.9962117,
                17.4882977
              ],
              [
                -62.9966639,
                17.4886327
              ],
              [
                -62.9970539,
                17.489083
              ],
              [
                -62.9972872,
                17.4894565
              ],
              [
                -62.9977191,
                17.490467
              ],
              [
                -62.9980388,
                17.4909027
              ],
              [
                -62.9984353,
                17.4913768
              ],
              [
                -62.9988347,
                17.4920214
              ],
              [
                -62.9991307,
                17.4925994
              ],
              [
                -62.9991671,
                17.4931854
              ],
              [
                -62.9992564,
                17.493569
              ],
              [
                -62.9995608,
                17.4940458
              ],
              [
                -62.9997256,
                17.4944933
              ],
              [
                -62.9997731,
                17.4950926
              ],
              [
                -62.9997424,
                17.4957372
              ],
              [
                -62.9998265,
                17.4959195
              ],
              [
                -62.9998966,
                17.4959597
              ],
              [
                -62.9999402,
                17.4960098
              ],
              [
                -62.9999313,
                17.4960848
              ],
              [
                -62.9998887,
                17.4961878
              ],
              [
                -62.9999322,
                17.4963957
              ],
              [
                -62.9999475,
                17.4964882
              ],
              [
                -62.9999092,
                17.4965825
              ],
              [
                -62.9999211,
                17.4970503
              ],
              [
                -62.9998401,
                17.4972528
              ],
              [
                -62.9996687,
                17.4973199
              ],
              [
                -62.9996424,
                17.4975553
              ],
              [
                -62.9996556,
                17.4977481
              ],
              [
                -62.9996621,
                17.4979043
              ],
              [
                -62.9996759,
                17.4980424
              ],
              [
                -62.999704,
                17.4981454
              ],
              [
                -62.9997186,
                17.4981965
              ],
              [
                -62.9997857,
                17.4983797
              ],
              [
                -62.9998423,
                17.4986312
              ],
              [
                -63.0000204,
                17.4991289
              ],
              [
                -63.0000979,
                17.4993729
              ],
              [
                -63.0001545,
                17.4995216
              ],
              [
                -63.0002578,
                17.4997211
              ],
              [
                -63.000336,
                17.499857
              ],
              [
                -63.0004174,
                17.4999424
              ],
              [
                -63.000656,
                17.5001857
              ],
              [
                -63.0007573,
                17.5002445
              ],
              [
                -63.0007801,
                17.5003393
              ],
              [
                -63.0008385,
                17.5004131
              ],
              [
                -63.0009782,
                17.5005881
              ],
              [
                -63.0011611,
                17.5008859
              ],
              [
                -63.0012716,
                17.5011014
              ],
              [
                -63.0013949,
                17.5013846
              ],
              [
                -63.0014362,
                17.501528
              ],
              [
                -63.0014598,
                17.5016436
              ],
              [
                -63.0014851,
                17.5016918
              ],
              [
                -63.0016622,
                17.5020083
              ],
              [
                -63.0017692,
                17.5021602
              ],
              [
                -63.0020667,
                17.5024791
              ],
              [
                -63.0022859,
                17.5027051
              ],
              [
                -63.0023431,
                17.5027427
              ],
              [
                -63.0024317,
                17.5027801
              ],
              [
                -63.0025028,
                17.5027295
              ],
              [
                -63.0025146,
                17.5027249
              ],
              [
                -63.0025256,
                17.5027233
              ],
              [
                -63.0025369,
                17.502723
              ],
              [
                -63.0025522,
                17.5027274
              ],
              [
                -63.0025636,
                17.5027332
              ],
              [
                -63.0025726,
                17.5027417
              ],
              [
                -63.0027946,
                17.5030107
              ],
              [
                -63.0028025,
                17.5030243
              ],
              [
                -63.0028061,
                17.5030381
              ],
              [
                -63.0028065,
                17.5030515
              ],
              [
                -63.0028018,
                17.5030655
              ],
              [
                -63.0027933,
                17.5030765
              ],
              [
                -63.0027854,
                17.5030842
              ],
              [
                -63.0027576,
                17.5031048
              ],
              [
                -63.0027503,
                17.5031093
              ],
              [
                -63.0027596,
                17.5031693
              ],
              [
                -63.0027566,
                17.5032028
              ],
              [
                -63.0027459,
                17.5032366
              ],
              [
                -63.0027398,
                17.5033166
              ],
              [
                -63.0027963,
                17.5035104
              ],
              [
                -63.0028594,
                17.5037755
              ],
              [
                -63.002982,
                17.504193
              ],
              [
                -63.0030234,
                17.5043785
              ],
              [
                -63.0030191,
                17.5045512
              ],
              [
                -63.0030362,
                17.5046722
              ],
              [
                -63.0030519,
                17.5047837
              ],
              [
                -63.0030497,
                17.504921
              ],
              [
                -63.003002,
                17.5050217
              ],
              [
                -63.0030084,
                17.5051665
              ],
              [
                -63.0030533,
                17.5052344
              ],
              [
                -63.0030768,
                17.50528
              ],
              [
                -63.0030797,
                17.5053228
              ],
              [
                -63.0030597,
                17.5053623
              ],
              [
                -63.0030198,
                17.5053942
              ],
              [
                -63.0029813,
                17.5054554
              ],
              [
                -63.0029264,
                17.5055071
              ],
              [
                -63.0029557,
                17.5056454
              ],
              [
                -63.0031373,
                17.5060484
              ],
              [
                -63.0030939,
                17.5065418
              ],
              [
                -63.0030189,
                17.5067189
              ],
              [
                -63.0028293,
                17.5069336
              ],
              [
                -63.0025449,
                17.5073328
              ],
              [
                -63.0022605,
                17.5076417
              ],
              [
                -63.0022408,
                17.5080221
              ],
              [
                -63.0021386,
                17.5083322
              ],
              [
                -63.0021144,
                17.508557
              ],
              [
                -63.0020512,
                17.5088244
              ],
              [
                -63.0019248,
                17.5089901
              ],
              [
                -63.0016444,
                17.5091559
              ],
              [
                -63.0012494,
                17.5092274
              ],
              [
                -63.0010243,
                17.5094271
              ],
              [
                -63.0009058,
                17.5096229
              ],
              [
                -63.0008466,
                17.5099017
              ],
              [
                -63.0006294,
                17.5101804
              ],
              [
                -63.0005446,
                17.5107897
              ],
              [
                -63.000472,
                17.5109126
              ],
              [
                -63.0003192,
                17.5109093
              ],
              [
                -63.0002557,
                17.5110115
              ],
              [
                -63.0003006,
                17.5111882
              ],
              [
                -63.0002009,
                17.5113648
              ],
              [
                -62.9997999,
                17.5118829
              ],
              [
                -62.9995077,
                17.5121758
              ],
              [
                -62.9993073,
                17.5125816
              ],
              [
                -62.999272,
                17.5128755
              ],
              [
                -62.9993283,
                17.5131185
              ],
              [
                -62.9996735,
                17.5137888
              ],
              [
                -62.9999911,
                17.5145801
              ],
              [
                -63.0000752,
                17.5148564
              ],
              [
                -63.0004572,
                17.5157057
              ],
              [
                -63.0005121,
                17.516075
              ],
              [
                -63.0005431,
                17.5164517
              ],
              [
                -63.0007083,
                17.516979
              ],
              [
                -63.0007206,
                17.5171834
              ],
              [
                -63.0006107,
                17.5174389
              ],
              [
                -63.000631,
                17.517653
              ],
              [
                -63.0007123,
                17.5178452
              ],
              [
                -63.0006304,
                17.5182382
              ],
              [
                -63.000279,
                17.5189172
              ],
              [
                -63.0000652,
                17.5196545
              ],
              [
                -63.0000043,
                17.520206
              ],
              [
                -63.0002871,
                17.5206118
              ],
              [
                -63.0001065,
                17.5209166
              ],
              [
                -62.9999718,
                17.5210357
              ],
              [
                -62.9999616,
                17.5212664
              ],
              [
                -62.9999928,
                17.521527
              ],
              [
                -62.999952,
                17.5217892
              ],
              [
                -62.9998907,
                17.5220612
              ],
              [
                -62.9995025,
                17.5226391
              ],
              [
                -62.9994466,
                17.5229161
              ],
              [
                -62.9993926,
                17.5230535
              ],
              [
                -62.9994103,
                17.5231909
              ],
              [
                -62.9993684,
                17.5235979
              ],
              [
                -62.9992595,
                17.5238056
              ],
              [
                -62.9992567,
                17.5240236
              ],
              [
                -62.9993154,
                17.5241731
              ],
              [
                -62.9991953,
                17.5246285
              ],
              [
                -62.9990166,
                17.5250626
              ],
              [
                -62.9988455,
                17.5252419
              ],
              [
                -62.9987832,
                17.5253879
              ],
              [
                -62.9986758,
                17.525526
              ],
              [
                -62.9985746,
                17.5255575
              ],
              [
                -62.9984985,
                17.5255617
              ],
              [
                -62.9983836,
                17.525584
              ],
              [
                -62.9981757,
                17.5258665
              ],
              [
                -62.9980396,
                17.5259707
              ],
              [
                -62.9978318,
                17.5260452
              ],
              [
                -62.9976394,
                17.5259639
              ],
              [
                -62.997447,
                17.5259335
              ],
              [
                -62.9972711,
                17.5258083
              ],
              [
                -62.997204,
                17.5256618
              ],
              [
                -62.9971851,
                17.5254215
              ],
              [
                -62.9970951,
                17.5253333
              ],
              [
                -62.9969877,
                17.5252658
              ],
              [
                -62.9967237,
                17.5251239
              ],
              [
                -62.9963048,
                17.525036
              ],
              [
                -62.9954637,
                17.5251416
              ],
              [
                -62.9950495,
                17.5252949
              ],
              [
                -62.9946935,
                17.5252553
              ],
              [
                -62.9943885,
                17.5252568
              ],
              [
                -62.9940958,
                17.5253815
              ],
              [
                -62.9939083,
                17.525514
              ],
              [
                -62.9937496,
                17.525533
              ],
              [
                -62.9935938,
                17.5254906
              ],
              [
                -62.9934968,
                17.5254113
              ],
              [
                -62.9933499,
                17.5251571
              ],
              [
                -62.9932451,
                17.5249995
              ],
              [
                -62.993258,
                17.5247652
              ],
              [
                -62.9933109,
                17.5245646
              ],
              [
                -62.9932243,
                17.5243835
              ],
              [
                -62.9932505,
                17.5241094
              ],
              [
                -62.9932243,
                17.5238535
              ],
              [
                -62.9929534,
                17.5235846
              ],
              [
                -62.9928744,
                17.5232285
              ],
              [
                -62.992654,
                17.5229681
              ],
              [
                -62.9925966,
                17.5229235
              ],
              [
                -62.99251,
                17.5228961
              ],
              [
                -62.9924241,
                17.5229336
              ],
              [
                -62.992303,
                17.5230028
              ],
              [
                -62.9920843,
                17.5231507
              ],
              [
                -62.9918335,
                17.5231398
              ],
              [
                -62.991778,
                17.5232116
              ],
              [
                -62.9916807,
                17.5232282
              ],
              [
                -62.9916093,
                17.5232091
              ],
              [
                -62.991543,
                17.5231824
              ],
              [
                -62.9914393,
                17.5231532
              ],
              [
                -62.9912945,
                17.5231451
              ],
              [
                -62.991148,
                17.5232017
              ],
              [
                -62.9911074,
                17.5232008
              ],
              [
                -62.9910745,
                17.5231772
              ],
              [
                -62.9910645,
                17.5231477
              ],
              [
                -62.9910707,
                17.5230921
              ],
              [
                -62.9912799,
                17.5227413
              ],
              [
                -62.9913308,
                17.5223329
              ],
              [
                -62.9914455,
                17.5218979
              ],
              [
                -62.9915473,
                17.5218228
              ],
              [
                -62.9916975,
                17.5218164
              ],
              [
                -62.9917431,
                17.5218036
              ],
              [
                -62.9918209,
                17.5216054
              ],
              [
                -62.9918852,
                17.5215644
              ],
              [
                -62.9919228,
                17.5214366
              ],
              [
                -62.9919751,
                17.5212025
              ],
              [
                -62.991963,
                17.5211079
              ],
              [
                -62.9919201,
                17.521012
              ],
              [
                -62.9918557,
                17.5209838
              ],
              [
                -62.9917672,
                17.5209851
              ],
              [
                -62.9916573,
                17.5209301
              ],
              [
                -62.9915674,
                17.5209493
              ],
              [
                -62.9915406,
                17.520902
              ],
              [
                -62.9915527,
                17.5208227
              ],
              [
                -62.9915929,
                17.5207498
              ],
              [
                -62.9916975,
                17.5207165
              ],
              [
                -62.9917538,
                17.5206411
              ],
              [
                -62.99179,
                17.5205631
              ],
              [
                -62.9917981,
                17.5203904
              ],
              [
                -62.9917806,
                17.5202958
              ],
              [
                -62.9917498,
                17.5202408
              ],
              [
                -62.9917096,
                17.5201884
              ],
              [
                -62.991676,
                17.5201423
              ],
              [
                -62.9916445,
                17.520103
              ],
              [
                -62.9916207,
                17.5200819
              ],
              [
                -62.9915594,
                17.5200554
              ],
              [
                -62.9914634,
                17.5199984
              ],
              [
                -62.9913649,
                17.5199377
              ],
              [
                -62.9913086,
                17.5198968
              ],
              [
                -62.9912563,
                17.5198814
              ],
              [
                -62.9911758,
                17.5199096
              ],
              [
                -62.9910377,
                17.5200579
              ],
              [
                -62.9908606,
                17.5203073
              ],
              [
                -62.9907876,
                17.5203437
              ],
              [
                -62.990697,
                17.5203054
              ],
              [
                -62.9907158,
                17.5202497
              ],
              [
                -62.990815,
                17.5201065
              ],
              [
                -62.9908901,
                17.5200195
              ],
              [
                -62.9909467,
                17.5199261
              ],
              [
                -62.991043,
                17.519774
              ],
              [
                -62.9910645,
                17.5195924
              ],
              [
                -62.9908518,
                17.5192592
              ],
              [
                -62.9907396,
                17.5189453
              ],
              [
                -62.9907346,
                17.5188097
              ],
              [
                -62.9906783,
                17.5187355
              ],
              [
                -62.99063,
                17.5186665
              ],
              [
                -62.9905693,
                17.5186763
              ],
              [
                -62.9904967,
                17.5185484
              ],
              [
                -62.9905581,
                17.5184499
              ],
              [
                -62.990528,
                17.5184081
              ],
              [
                -62.9904825,
                17.5183467
              ],
              [
                -62.9903698,
                17.5182342
              ],
              [
                -62.9902425,
                17.5180477
              ],
              [
                -62.990114,
                17.5179705
              ],
              [
                -62.9899436,
                17.5179818
              ],
              [
                -62.98982,
                17.5179822
              ],
              [
                -62.9897188,
                17.5180227
              ],
              [
                -62.9896259,
                17.5181522
              ],
              [
                -62.9895722,
                17.5183141
              ],
              [
                -62.9895122,
                17.5184381
              ],
              [
                -62.9894357,
                17.5184902
              ],
              [
                -62.9893608,
                17.5184524
              ],
              [
                -62.9893516,
                17.5183469
              ],
              [
                -62.9893849,
                17.518191
              ],
              [
                -62.9894025,
                17.5180571
              ],
              [
                -62.9896577,
                17.5178455
              ],
              [
                -62.9899186,
                17.5174272
              ],
              [
                -62.990193,
                17.5171189
              ],
              [
                -62.9903198,
                17.5168972
              ],
              [
                -62.9903421,
                17.5165243
              ],
              [
                -62.9902835,
                17.5162633
              ],
              [
                -62.9899735,
                17.5160156
              ],
              [
                -62.9896356,
                17.5158745
              ],
              [
                -62.9893507,
                17.5158931
              ],
              [
                -62.9888033,
                17.5159331
              ],
              [
                -62.9883658,
                17.5159091
              ],
              [
                -62.9880977,
                17.5157893
              ],
              [
                -62.9875056,
                17.5158345
              ],
              [
                -62.9871704,
                17.515981
              ],
              [
                -62.98657,
                17.515989
              ],
              [
                -62.9856931,
                17.5162261
              ],
              [
                -62.9850689,
                17.5163414
              ],
              [
                -62.9846513,
                17.5166309
              ],
              [
                -62.9844391,
                17.5166335
              ],
              [
                -62.9840984,
                17.5165626
              ],
              [
                -62.9837911,
                17.5165573
              ],
              [
                -62.9837099,
                17.5165691
              ],
              [
                -62.9834604,
                17.5165307
              ],
              [
                -62.9833505,
                17.5166356
              ],
              [
                -62.9832888,
                17.5168095
              ],
              [
                -62.9831807,
                17.5169716
              ],
              [
                -62.9827131,
                17.5172284
              ],
              [
                -62.9823131,
                17.5173264
              ],
              [
                -62.9820317,
                17.5173643
              ],
              [
                -62.9819754,
                17.5173468
              ],
              [
                -62.981889,
                17.5172468
              ],
              [
                -62.9818947,
                17.5171163
              ],
              [
                -62.9819378,
                17.5170154
              ],
              [
                -62.9820457,
                17.5168609
              ],
              [
                -62.9820931,
                17.5166558
              ],
              [
                -62.9820457,
                17.516512
              ],
              [
                -62.9820623,
                17.5162142
              ],
              [
                -62.9820409,
                17.5161982
              ],
              [
                -62.9819146,
                17.5161787
              ],
              [
                -62.9817522,
                17.5159966
              ],
              [
                -62.9816658,
                17.5158089
              ],
              [
                -62.9815446,
                17.5155767
              ],
              [
                -62.9814263,
                17.5154836
              ],
              [
                -62.9812916,
                17.5154414
              ],
              [
                -62.9809481,
                17.5153029
              ],
              [
                -62.9808493,
                17.5153694
              ],
              [
                -62.9807648,
                17.5153912
              ],
              [
                -62.9807138,
                17.5153848
              ],
              [
                -62.9806937,
                17.5153669
              ],
              [
                -62.9806817,
                17.5153106
              ],
              [
                -62.9806696,
                17.515262
              ],
              [
                -62.9806978,
                17.5152044
              ],
              [
                -62.9808091,
                17.5151405
              ],
              [
                -62.9808615,
                17.5150392
              ],
              [
                -62.9808402,
                17.5149464
              ],
              [
                -62.9808131,
                17.5148847
              ],
              [
                -62.9807541,
                17.514831
              ],
              [
                -62.9806924,
                17.5148029
              ],
              [
                -62.9806105,
                17.5147933
              ],
              [
                -62.9803855,
                17.514752
              ],
              [
                -62.9800935,
                17.514653
              ],
              [
                -62.9799642,
                17.5146059
              ],
              [
                -62.9798543,
                17.5146366
              ],
              [
                -62.979755,
                17.5147683
              ],
              [
                -62.9796906,
                17.5147786
              ],
              [
                -62.9796557,
                17.5147555
              ],
              [
                -62.979641,
                17.5147108
              ],
              [
                -62.9796651,
                17.5146699
              ],
              [
                -62.9796664,
                17.514597
              ],
              [
                -62.9796021,
                17.5145637
              ],
              [
                -62.9795755,
                17.5145309
              ],
              [
                -62.9796021,
                17.5144846
              ],
              [
                -62.979759,
                17.5143847
              ],
              [
                -62.9797818,
                17.5141979
              ],
              [
                -62.9796986,
                17.5139741
              ],
              [
                -62.9795256,
                17.513891
              ],
              [
                -62.9795015,
                17.5138296
              ],
              [
                -62.9794908,
                17.513625
              ],
              [
                -62.9795109,
                17.5134792
              ],
              [
                -62.9794843,
                17.5133716
              ],
              [
                -62.9794116,
                17.513116
              ],
              [
                -62.9792615,
                17.5130929
              ],
              [
                -62.9792467,
                17.5130494
              ],
              [
                -62.9792708,
                17.5130072
              ],
              [
                -62.9793574,
                17.5129317
              ],
              [
                -62.9793733,
                17.5128328
              ],
              [
                -62.9793813,
                17.5127194
              ],
              [
                -62.9793813,
                17.5124664
              ],
              [
                -62.9795551,
                17.5120774
              ],
              [
                -62.9796276,
                17.51186
              ],
              [
                -62.9797248,
                17.5116834
              ],
              [
                -62.9798099,
                17.5114712
              ],
              [
                -62.979898,
                17.5112093
              ],
              [
                -62.9800245,
                17.5110722
              ],
              [
                -62.9802861,
                17.5105499
              ],
              [
                -62.9803871,
                17.5100774
              ],
              [
                -62.9804537,
                17.5094684
              ],
              [
                -62.9803759,
                17.5093354
              ],
              [
                -62.9802918,
                17.5092011
              ],
              [
                -62.9803088,
                17.5091231
              ],
              [
                -62.9804081,
                17.5091103
              ],
              [
                -62.9805771,
                17.5090386
              ],
              [
                -62.9806736,
                17.5089031
              ],
              [
                -62.9810625,
                17.5084529
              ],
              [
                -62.9812106,
                17.5082876
              ],
              [
                -62.9815168,
                17.5079768
              ],
              [
                -62.9814945,
                17.5078973
              ],
              [
                -62.9813943,
                17.507758
              ],
              [
                -62.9810518,
                17.5072969
              ],
              [
                -62.9809123,
                17.5071125
              ],
              [
                -62.9806843,
                17.5067186
              ],
              [
                -62.9800942,
                17.5059641
              ],
              [
                -62.9799794,
                17.5058657
              ],
              [
                -62.9798412,
                17.5057912
              ],
              [
                -62.9795766,
                17.5055521
              ],
              [
                -62.9789838,
                17.5050303
              ],
              [
                -62.9787129,
                17.5047694
              ],
              [
                -62.9783704,
                17.5044987
              ],
              [
                -62.9782215,
                17.504305
              ],
              [
                -62.9780692,
                17.5041171
              ],
              [
                -62.9777956,
                17.5038306
              ],
              [
                -62.9773921,
                17.5034785
              ],
              [
                -62.9769927,
                17.5032977
              ],
              [
                -62.9768005,
                17.5031988
              ],
              [
                -62.9765296,
                17.5029941
              ],
              [
                -62.9763848,
                17.5028381
              ],
              [
                -62.975336,
                17.5023086
              ],
              [
                -62.9744978,
                17.5019533
              ],
              [
                -62.9735041,
                17.5014772
              ],
              [
                -62.9727986,
                17.5006868
              ],
              [
                -62.9723588,
                17.5004514
              ],
              [
                -62.9718572,
                17.5003107
              ],
              [
                -62.9714227,
                17.5002135
              ],
              [
                -62.9709817,
                17.5001846
              ],
              [
                -62.9707057,
                17.5001706
              ],
              [
                -62.9704297,
                17.500222
              ],
              [
                -62.9702479,
                17.5003005
              ],
              [
                -62.9700507,
                17.500498
              ],
              [
                -62.9698347,
                17.5006937
              ],
              [
                -62.9694422,
                17.5009788
              ],
              [
                -62.9688192,
                17.5011355
              ],
              [
                -62.9684709,
                17.5011293
              ],
              [
                -62.9683073,
                17.5011165
              ],
              [
                -62.968114,
                17.5010983
              ],
              [
                -62.9678889,
                17.5010961
              ],
              [
                -62.9676864,
                17.5010283
              ],
              [
                -62.9670922,
                17.5008569
              ],
              [
                -62.9665038,
                17.5006745
              ],
              [
                -62.9660784,
                17.5005742
              ],
              [
                -62.9658061,
                17.5004847
              ],
              [
                -62.9655339,
                17.5004195
              ],
              [
                -62.9653555,
                17.5003312
              ],
              [
                -62.9648633,
                17.4998848
              ],
              [
                -62.964583,
                17.4995958
              ],
              [
                -62.9644623,
                17.4994896
              ],
              [
                -62.9643644,
                17.4994231
              ],
              [
                -62.9642545,
                17.4993553
              ],
              [
                -62.9641458,
                17.4992658
              ],
              [
                -62.9640144,
                17.4991622
              ],
              [
                -62.9638682,
                17.4990419
              ],
              [
                -62.963541,
                17.4988514
              ],
              [
                -62.9632527,
                17.4986339
              ],
              [
                -62.9631038,
                17.4984907
              ],
              [
                -62.9629429,
                17.4983551
              ],
              [
                -62.9626317,
                17.4979624
              ],
              [
                -62.9624641,
                17.4977335
              ],
              [
                -62.9623498,
                17.4974948
              ],
              [
                -62.962228,
                17.4969632
              ],
              [
                -62.9621355,
                17.4966105
              ],
              [
                -62.9620403,
                17.4963559
              ],
              [
                -62.9619249,
                17.4960752
              ],
              [
                -62.9617945,
                17.495922
              ],
              [
                -62.9617145,
                17.4958577
              ],
              [
                -62.9616234,
                17.4958252
              ],
              [
                -62.9615119,
                17.4958187
              ],
              [
                -62.9614207,
                17.4958136
              ],
              [
                -62.9612517,
                17.495829
              ],
              [
                -62.9611015,
                17.4958443
              ],
              [
                -62.9609621,
                17.4958481
              ],
              [
                -62.9606161,
                17.4958673
              ],
              [
                -62.9603604,
                17.4959022
              ],
              [
                -62.9600681,
                17.4958918
              ],
              [
                -62.9596491,
                17.4958251
              ],
              [
                -62.9593532,
                17.4957178
              ],
              [
                -62.9591087,
                17.4955527
              ],
              [
                -62.958988,
                17.4953762
              ],
              [
                -62.9589209,
                17.4952227
              ],
              [
                -62.9588471,
                17.4948326
              ],
              [
                -62.9588203,
                17.4945179
              ],
              [
                -62.9587868,
                17.4942096
              ],
              [
                -62.9587318,
                17.4941035
              ],
              [
                -62.9586567,
                17.4940165
              ],
              [
                -62.9585575,
                17.49395
              ],
              [
                -62.9584488,
                17.4938886
              ],
              [
                -62.9582879,
                17.493872
              ],
              [
                -62.9580519,
                17.4939103
              ],
              [
                -62.9579709,
                17.4939037
              ],
              [
                -62.9579254,
                17.4938986
              ],
              [
                -62.95766,
                17.4939351
              ],
              [
                -62.9573982,
                17.4939857
              ],
              [
                -62.957176,
                17.4939033
              ],
              [
                -62.9569538,
                17.4938633
              ],
              [
                -62.9565546,
                17.4936552
              ],
              [
                -62.9564383,
                17.4936617
              ],
              [
                -62.9563054,
                17.4936736
              ],
              [
                -62.9557987,
                17.4935035
              ],
              [
                -62.9554847,
                17.4931346
              ],
              [
                -62.9553543,
                17.4928646
              ],
              [
                -62.9553311,
                17.4926793
              ],
              [
                -62.9552449,
                17.492588
              ],
              [
                -62.9552184,
                17.4923518
              ],
              [
                -62.9551735,
                17.4920662
              ],
              [
                -62.9549419,
                17.4918508
              ],
              [
                -62.9546659,
                17.4916389
              ],
              [
                -62.9544074,
                17.4914801
              ],
              [
                -62.9542266,
                17.4914731
              ],
              [
                -62.95392,
                17.4916018
              ],
              [
                -62.9536354,
                17.491622
              ],
              [
                -62.9533952,
                17.4917199
              ],
              [
                -62.9532294,
                17.4917671
              ],
              [
                -62.9530635,
                17.4917613
              ],
              [
                -62.9527159,
                17.4917312
              ],
              [
                -62.9525856,
                17.4916577
              ],
              [
                -62.9525184,
                17.4915221
              ],
              [
                -62.9523051,
                17.4913752
              ],
              [
                -62.9520089,
                17.4915202
              ],
              [
                -62.9518499,
                17.4915789
              ],
              [
                -62.9517079,
                17.4916068
              ],
              [
                -62.9515667,
                17.491492
              ],
              [
                -62.9515478,
                17.4913992
              ],
              [
                -62.9514328,
                17.4913471
              ],
              [
                -62.9512872,
                17.4911759
              ],
              [
                -62.95122,
                17.491122
              ],
              [
                -62.9511567,
                17.4910836
              ],
              [
                -62.9510935,
                17.4911123
              ],
              [
                -62.9510716,
                17.491049
              ],
              [
                -62.9510867,
                17.4910105
              ],
              [
                -62.9510688,
                17.4909317
              ],
              [
                -62.950951,
                17.4908423
              ],
              [
                -62.9508813,
                17.4907423
              ],
              [
                -62.9508082,
                17.4904673
              ],
              [
                -62.950826,
                17.4901901
              ],
              [
                -62.9508297,
                17.4901059
              ],
              [
                -62.9507964,
                17.4900323
              ],
              [
                -62.9506879,
                17.4899339
              ],
              [
                -62.9505495,
                17.4898891
              ],
              [
                -62.9502655,
                17.4898766
              ],
              [
                -62.9499815,
                17.4898924
              ],
              [
                -62.9496253,
                17.48981
              ],
              [
                -62.9493293,
                17.4896755
              ],
              [
                -62.9491198,
                17.4894484
              ],
              [
                -62.9489836,
                17.4891257
              ],
              [
                -62.948871,
                17.4886027
              ],
              [
                -62.9487586,
                17.4882034
              ],
              [
                -62.9487248,
                17.4878756
              ],
              [
                -62.9486498,
                17.4877494
              ],
              [
                -62.9485326,
                17.4876772
              ],
              [
                -62.9480573,
                17.4877005
              ],
              [
                -62.9476845,
                17.4877503
              ],
              [
                -62.9474432,
                17.487708
              ],
              [
                -62.9472506,
                17.4876289
              ],
              [
                -62.9470917,
                17.4874292
              ],
              [
                -62.9470206,
                17.4872202
              ],
              [
                -62.9471114,
                17.4869
              ],
              [
                -62.9471193,
                17.4865948
              ],
              [
                -62.9470561,
                17.4861842
              ],
              [
                -62.9469337,
                17.4859149
              ],
              [
                -62.9465071,
                17.4852876
              ],
              [
                -62.946444,
                17.4851586
              ],
              [
                -62.9464104,
                17.4850296
              ],
              [
                -62.9463632,
                17.4844365
              ],
              [
                -62.9462606,
                17.4841761
              ],
              [
                -62.945986,
                17.4838146
              ],
              [
                -62.9459111,
                17.4836204
              ],
              [
                -62.9459308,
                17.4831514
              ],
              [
                -62.9460276,
                17.4828463
              ],
              [
                -62.9461895,
                17.4825539
              ],
              [
                -62.9463179,
                17.4823942
              ],
              [
                -62.9464877,
                17.4820985
              ],
              [
                -62.946545,
                17.4819176
              ],
              [
                -62.9463989,
                17.4812057
              ],
              [
                -62.9466618,
                17.479779
              ],
              [
                -62.9468389,
                17.4791946
              ],
              [
                -62.9470091,
                17.4788888
              ],
              [
                -62.9470991,
                17.478722
              ],
              [
                -62.947142,
                17.4785454
              ],
              [
                -62.947138,
                17.4783932
              ],
              [
                -62.9471058,
                17.4781412
              ],
              [
                -62.9471085,
                17.4779161
              ],
              [
                -62.9471862,
                17.4776602
              ],
              [
                -62.9477602,
                17.4769388
              ],
              [
                -62.9478246,
                17.47683
              ],
              [
                -62.9478447,
                17.4767098
              ],
              [
                -62.9478179,
                17.4762902
              ],
              [
                -62.9478917,
                17.4760356
              ],
              [
                -62.9480553,
                17.4757952
              ],
              [
                -62.9483184,
                17.4754229
              ],
              [
                -62.9485314,
                17.475121
              ],
              [
                -62.9485743,
                17.4749957
              ],
              [
                -62.9485823,
                17.474823
              ],
              [
                -62.9485059,
                17.4741143
              ],
              [
                -62.9485327,
                17.4738661
              ],
              [
                -62.9486319,
                17.4736026
              ],
              [
                -62.9487828,
                17.4733469
              ],
              [
                -62.9491362,
                17.4729092
              ],
              [
                -62.94929,
                17.4726615
              ],
              [
                -62.9494797,
                17.4723028
              ],
              [
                -62.9496529,
                17.4719833
              ],
              [
                -62.9498528,
                17.4714917
              ],
              [
                -62.9500661,
                17.471147
              ],
              [
                -62.9510326,
                17.4700338
              ],
              [
                -62.9518355,
                17.4690994
              ],
              [
                -62.9520014,
                17.4688451
              ],
              [
                -62.9524141,
                17.4685117
              ],
              [
                -62.9526294,
                17.4683666
              ],
              [
                -62.9529572,
                17.4681462
              ],
              [
                -62.9533107,
                17.4679974
              ],
              [
                -62.9539209,
                17.4677977
              ],
              [
                -62.954241,
                17.4677305
              ],
              [
                -62.9544659,
                17.4677299
              ],
              [
                -62.9547722,
                17.4676223
              ],
              [
                -62.9552361,
                17.4676338
              ],
              [
                -62.9556238,
                17.4675982
              ],
              [
                -62.9557752,
                17.4675905
              ],
              [
                -62.9558759,
                17.4675302
              ],
              [
                -62.9559411,
                17.467534
              ],
              [
                -62.9560063,
                17.4674605
              ],
              [
                -62.9560714,
                17.4674455
              ],
              [
                -62.9561386,
                17.4674813
              ],
              [
                -62.9561899,
                17.4675754
              ],
              [
                -62.9566718,
                17.4676018
              ],
              [
                -62.9571773,
                17.4676301
              ],
              [
                -62.9575328,
                17.4675811
              ],
              [
                -62.9579139,
                17.467421
              ],
              [
                -62.9583484,
                17.4672665
              ],
              [
                -62.9585577,
                17.4672345
              ],
              [
                -62.958517,
                17.4671625
              ],
              [
                -62.9585578,
                17.467106
              ],
              [
                -62.9586475,
                17.4671221
              ],
              [
                -62.958824,
                17.4670604
              ],
              [
                -62.9588975,
                17.4671004
              ],
              [
                -62.9591936,
                17.4669952
              ],
              [
                -62.9596142,
                17.466886
              ],
              [
                -62.9595984,
                17.4668031
              ],
              [
                -62.960091,
                17.4665829
              ],
              [
                -62.9603469,
                17.4665318
              ],
              [
                -62.9608011,
                17.4665111
              ],
              [
                -62.9610598,
                17.4664829
              ],
              [
                -62.9613086,
                17.4663962
              ],
              [
                -62.9616404,
                17.4661174
              ],
              [
                -62.9623152,
                17.4653411
              ],
              [
                -62.9624698,
                17.4651021
              ],
              [
                -62.9626209,
                17.4650034
              ]
            ]
          ]
        ]
      },
      "properties": {
        "osm_id": -2324452,
        "name": "Sint Eustatius",
        "name_en": "Sint Eustatius",
        "boundary": "administrative",
        "admin_level": 8,
        "admin_centre_node_id": 279149652,
        "admin_centre_node_lat": 17.482411,
        "admin_centre_node_lng": -62.9828803,
        "label_node_id": null,
        "label_node_lat": null,
        "label_node_lng": null
      }
    }
  ]
}